[{"OBJECT_NAME":"OTTER PUP 2","OBJECT_ID":"2025-135K","EPOCH":"2026-03-09T21:21:10.428192","MEAN_MOTION":15.22839777,"ECCENTRICITY":0.00032963,"INCLINATION":97.4591,"RA_OF_ASC_NODE":184.9166,"ARG_OF_PERICENTER":133.797,"MEAN_ANOMALY":226.3539,"EPHEMERIS_TYPE":0,"CLASSIFICATION_TYPE":"U","NORAD_CAT_ID":64537,"ELEMENT_SET_NO":999,"REV_AT_EPOCH":3976,"BSTAR":0.0012925798,"MEAN_MOTION_DOT":0.00030282,"MEAN_MOTION_DDOT":0},{"OBJECT_NAME":"BANDWAGON-4 OBJECT Q","OBJECT_ID":"2025-248Q","EPOCH":"2026-03-08T23:44:19.819392","MEAN_MOTION":15.23978167,"ECCENTRICITY":0.00112804,"INCLINATION":45.4076,"RA_OF_ASC_NODE":295.4821,"ARG_OF_PERICENTER":209.4727,"MEAN_ANOMALY":150.5526,"EPHEMERIS_TYPE":0,"CLASSIFICATION_TYPE":"U","NORAD_CAT_ID":66307,"ELEMENT_SET_NO":999,"REV_AT_EPOCH":1930,"BSTAR":0.0009224217,"MEAN_MOTION_DOT":0.00022547,"MEAN_MOTION_DDOT":0}]
